     2.100          NAVIGATION                              RINEX VERSION / TYPE
fic2rin                                 02/28/2009 02:18:46 PGM / RUN BY / DATE
                                                            END OF HEADER
 3 09  2 27 12  0  0.0  .358674675226D-03  .511590769747D-11  .000000000000D+00
     .103000000000D+03 -.517500000000D+02  .512342769704D-08  .304845486226D+01
    -.278837978840D-05  .116727633867D-01  .119153410196D-04  .515374554253D+04
     .475200000000D+06  .149011611938D-07  .725546597700D-01 -.212341547012D-06
     .926702188706D+00  .127968750000D+03  .892686120554D+00 -.810355183117D-08
    -.421446126351D-09  .100000000000D+01  .152000000000D+04  .000000000000D+00
     .240000000000D+01  .000000000000D+00 -.419095158577D-08  .103000000000D+03
     .468006000000D+06  .400000000000D+01
 4 09  2 27 12  0  0.0 -.352134928107D-03 -.142108547152D-10  .000000000000D+00
     .810000000000D+02  .847187500000D+02  .512628495892D-08 -.326158507411D-01
     .450573861599D-05  .861545803491D-02  .753253698349D-05  .515368978310D+04
     .475200000000D+06  .651925802231D-07  .123744133183D+01  .670552253723D-07
     .940828132994D+00  .220750000000D+03  .478146918338D+00 -.854928468345D-08
     .324299222650D-09  .100000000000D+01  .152000000000D+04  .000000000000D+00
     .240000000000D+01  .000000000000D+00 -.605359673500D-08  .810000000000D+02
     .468006000000D+06  .400000000000D+01
 7 09  2 27 12  0  0.0  .222567468882D-04 -.341060513165D-12  .000000000000D+00
     .900000000000D+02  .631250000000D+02  .452876006961D-08  .160483027473D+01
     .327639281750D-05  .231845816597D-02  .816211104393D-05  .515367579842D+04
     .475200000000D+06  .614672899246D-07 -.191047004531D+01  .186264514923D-08
     .965992857731D+00  .224468750000D+03  .291777504397D+01 -.810248035797D-08
     .564309220030D-09  .100000000000D+01  .152000000000D+04  .000000000000D+00
     .240000000000D+01  .000000000000D+00 -.107102096081D-07  .900000000000D+02
     .468006000000D+06  .400000000000D+01
 8 09  2 27 12  0  0.0 -.192444771528D-03 -.159161572810D-11  .000000000000D+00
     .870000000000D+02  .560000000000D+02  .408159858639D-08  .925361017595D+00
     .299513339996D-05  .104725103593D-01  .768154859543D-05  .515367122841D+04
     .475200000000D+06  .173225998878D-06 -.185194335527D+01  .109896063805D-06
     .987138658310D+00  .244125000000D+03  .297919291509D+01 -.789104297933D-08
     .520021660989D-09  .100000000000D+01  .152000000000D+04  .000000000000D+00
     .240000000000D+01  .000000000000D+00 -.465661287308D-08  .870000000000D+02
     .468006000000D+06  .400000000000D+01
 9 09  2 27 12  0  0.0  .426978804171D-04  .204636307899D-11  .000000000000D+00
     .104000000000D+03  .635625000000D+02  .437911097898D-08  .673517796251D+00
     .326149165630D-05  .202090744860D-01  .847131013870D-05  .515364726067D+04
     .475200000000D+06 -.271946191788D-06 -.194514024265D+01 -.447034835815D-07
     .974965026475D+00  .226968750000D+03  .146267667438D+01 -.841356474446D-08
     .465733685392D-09  .100000000000D+01  .152000000000D+04  .000000000000D+00
     .340000000000D+01  .000000000000D+00 -.558793544769D-08  .104000000000D+03
     .468006000000D+06  .400000000000D+01
10 09  2 27 12  0  0.0 -.118240714073D-04 -.682121026330D-12  .000000000000D+00
     .177000000000D+03 -.445000000000D+02  .478734226916D-08 -.203220462132D+01
    -.240840017796D-05  .856394285802D-02  .331178307533D-05  .515379393196D+04
     .475200000000D+06  .726431608200D-07  .230339451294D+01 -.875443220139D-07
     .959344578244D+00  .314437500000D+03  .601131708531D+00 -.836213403073D-08
    -.196793911542D-09  .100000000000D+01  .152000000000D+04  .000000000000D+00
     .340000000000D+01  .000000000000D+00 -.279396772385D-08  .177000000000D+03
     .468006000000D+06  .400000000000D+01
11 09  2 27 12  0  0.0  .621424987912D-05 -.113686837722D-11  .000000000000D+00
     .230000000000D+02  .907187500000D+02  .614454165911D-08  .146107057612D+01
     .486895442009D-05  .920764356852D-02  .999309122562D-05  .515367985725D+04
     .475200000000D+06 -.117346644402D-06  .102325814811D+01  .117346644402D-06
     .889839099107D+00  .149625000000D+03  .689005878192D+00 -.895108713442D-08
     .251796202608D-09  .100000000000D+01  .152000000000D+04  .000000000000D+00
     .240000000000D+01  .000000000000D+00 -.121071934700D-07  .230000000000D+02
     .468006000000D+06  .400000000000D+01
12 09  2 27 12  0  0.0 -.311722047627D-03  .397903932026D-11  .000000000000D+00
     .490000000000D+02 -.457187500000D+02  .494520598768D-08  .177417377291D+01
    -.246427953243D-05  .326695700642D-02  .394321978092D-05  .515370579147D+04
     .475200000000D+06  .670552253723D-07 -.858463639051D+00 -.521540641785D-07
     .966043721930D+00  .308218750000D+03 -.803595707135D+00 -.839142096494D-08
    -.275368613065D-09  .100000000000D+01  .152000000000D+04  .000000000000D+00
     .240000000000D+01  .000000000000D+00 -.121071934700D-07  .490000000000D+02
     .468006000000D+06  .400000000000D+01
14 09  2 27 12  0  0.0 -.148253515363D-03  .545696821064D-11  .000000000000D+00
     .830000000000D+02 -.399062500000D+02  .345978697116D-08 -.256336287931D+01
    -.206194818020D-05  .438549579121D-02  .127051025629D-04  .515358401299D+04
     .475200000000D+06  .167638063431D-07 -.292143327397D+01 -.465661287308D-07
     .989087494870D+00  .148875000000D+03 -.210582852938D+01 -.743102381768D-08
    -.114290474943D-09  .100000000000D+01  .152000000000D+04  .000000000000D+00
     .240000000000D+01  .000000000000D+00 -.931322574615D-08  .830000000000D+02
     .468006000000D+06  .400000000000D+01
15 09  2 27 12  0  0.0 -.262327026576D-03 -.511590769747D-11  .000000000000D+00
     .840000000000D+02 -.410000000000D+02  .425696303388D-08 -.214552616758D+01
    -.202842056751D-05  .142586801667D-02  .114683061838D-04  .515359397888D+04
     .475200000000D+06 -.186264514923D-08 -.297106118547D+01  .409781932831D-07
     .957184271024D+00  .159937500000D+03 -.660748721648D+00 -.794033074665D-08
    -.117147736816D-09  .100000000000D+01  .152000000000D+04  .000000000000D+00
     .340000000000D+01  .000000000000D+00 -.977888703346D-08  .840000000000D+02
     .468006000000D+06  .400000000000D+01
16 09  2 27 12  0  0.0  .714911147952D-04 -.295585778076D-11  .000000000000D+00
     .980000000000D+02 -.465312500000D+02  .489163232755D-08 -.742572652732D+00
    -.254437327385D-05  .513256306294D-02  .436790287495D-05  .515376377487D+04
     .475200000000D+06 -.931322574615D-08 -.841648944960D+00 -.707805156708D-07
     .967567672952D+00  .296500000000D+03 -.386982069528D+00 -.841713632180D-08
    -.196436753808D-09  .100000000000D+01  .152000000000D+04  .000000000000D+00
     .240000000000D+01  .000000000000D+00 -.977888703346D-08  .980000000000D+02
     .468006000000D+06  .400000000000D+01
17 09  2 27 12  0  0.0  .484003685415D-04  .125055521494D-11  .000000000000D+00
     .400000000000D+02 -.406562500000D+02  .436803908922D-08 -.183322917763D+01
    -.196881592274D-05  .427627679892D-02  .123418867588D-04  .515365337944D+04
     .475200000000D+06 -.186264514923D-08  .200145330502D+00 -.707805156708D-07
     .960208652270D+00  .141125000000D+03 -.272683154133D+01 -.785104131310D-08
    -.245724521127D-09  .100000000000D+01  .152000000000D+04  .000000000000D+00
     .240000000000D+01  .000000000000D+00 -.102445483208D-07  .400000000000D+02
     .468006000000D+06  .400000000000D+01
18 09  2 27 12  0  0.0 -.794809311628D-04  .352429196937D-11  .000000000000D+00
     .103000000000D+03 -.486250000000D+02  .533557939116D-08 -.614373753327D+00
    -.250339508057D-05  .996341416612D-02  .333599746227D-05  .515375236320D+04
     .475200000000D+06  .838190317154D-07  .231018802216D+01  .149011611938D-06
     .943403053141D+00  .305625000000D+03 -.243687713013D+01 -.882251035011D-08
    -.373586989969D-09  .100000000000D+01  .152000000000D+04  .000000000000D+00
     .340000000000D+01  .000000000000D+00 -.107102096081D-07  .103000000000D+03
     .468006000000D+06  .400000000000D+01
19 09  2 27 12  0  0.0  .316496007144D-04 -.682121026330D-12  .000000000000D+00
     .150000000000D+02 -.206562500000D+02  .444661379074D-08 -.255905599729D+01
    -.104866921902D-05  .527236086782D-02  .133812427521D-04  .515357571030D+04
     .475200000000D+06 -.912696123123D-07  .256429687497D+00  .186264514923D-07
     .957933283618D+00  .118968750000D+03 -.381735650308D+00 -.783282626865D-08
    -.275011455331D-09  .100000000000D+01  .152000000000D+04  .000000000000D+00
     .240000000000D+01  .000000000000D+00 -.149011611938D-07  .150000000000D+02
     .468006000000D+06  .400000000000D+01
20 09  2 27 12  0  0.0  .895964913070D-04 -.113686837722D-11  .000000000000D+00
     .780000000000D+02 -.295000000000D+02  .536200906349D-08 -.458748302765D+00
    -.154413282871D-05  .400343385991D-02  .285543501377D-05  .515366136932D+04
     .475200000000D+06 -.391155481339D-07  .225638834521D+01  .875443220139D-07
     .942975540202D+00  .314593750000D+03  .132068185769D+01 -.879750930872D-08
    -.235009789101D-09  .100000000000D+01  .152000000000D+04  .000000000000D+00
     .240000000000D+01  .000000000000D+00 -.651925802231D-08  .780000000000D+02
     .468006000000D+06  .400000000000D+01
21 09  2 27 12  0  0.0  .269906595349D-04 -.193267624127D-11  .000000000000D+00
     .400000000000D+02  .973750000000D+02  .530129224867D-08  .676393705941D+00
     .533647835255D-05  .147292272886D-01  .660121440887D-05  .515364038086D+04
     .475200000000D+06 -.502914190292D-07  .125118551155D+01  .281259417534D-06
     .934347005063D+00  .235968750000D+03 -.264232734829D+01 -.870321966689D-08
     .212508851847D-09  .100000000000D+01  .152000000000D+04  .000000000000D+00
     .240000000000D+01  .000000000000D+00 -.116415321827D-07  .400000000000D+02
     .468006000000D+06  .400000000000D+01
